{
"type": "FeatureCollection",
"name": "gv_isolate_grafo2026",
"crs": { "type": "name", "properties": { "name": "urn:ogc:def:crs:OGC:1.3:CRS84" } },
"features": [
{ "type": "Feature", "properties": { "Name": null, "descriptio": "descrizione: descrizione: descrizione: <br>Layer: 0<br>EntityHandle: 2010F<br>Layer: 0<br>EntityHandle: 2010F<br>Layer: 0<br>EntityHandle: 2010F", "timestamp": null, "begin": null, "end": null, "altitudeMo": null, "tessellate": 1, "extrude": 0, "visibility": -1, "drawOrder": null, "icon": null, "descrizion": "descrizione: descrizione: \nLayer: 0\nEntityHandle: 2010F\nLayer: 0\nEntityHandle: 2010F", "Layer": "0", "EntityHand": "2010F", "length_m": 108.8218883316724, "covered_length": 0.0, "coverage_pct": 0.0 }, "geometry": { "type": "LineString", "coordinates": [ [ 12.507207006110004, 41.885312001144904, 0.0 ], [ 12.507112006110066, 41.885517001144898, 0.0 ], [ 12.506940006110121, 41.885477001144906, 0.0 ], [ 12.506790006110174, 41.885436001144924, 0.0 ], [ 12.506691006110206, 41.885396001144912, 0.0 ], [ 12.506648006110217, 41.885333001144943, 0.0 ], [ 12.506619006110215, 41.885232001144949, 0.0 ] ] } },
{ "type": "Feature", "properties": { "Name": null, "descriptio": "descrizione: descrizione: descrizione: <br>Layer: 0<br>EntityHandle: 20138<br>Layer: 0<br>EntityHandle: 20138<br>Layer: 0<br>EntityHandle: 20138", "timestamp": null, "begin": null, "end": null, "altitudeMo": null, "tessellate": 1, "extrude": 0, "visibility": -1, "drawOrder": null, "icon": null, "descrizion": "descrizione: descrizione: \nLayer: 0\nEntityHandle: 20138\nLayer: 0\nEntityHandle: 20138", "Layer": "0", "EntityHand": "20138", "length_m": 308.45591838350617, "covered_length": 0.0, "coverage_pct": 0.0 }, "geometry": { "type": "LineString", "coordinates": [ [ 12.482853006121015, 41.904849001144449, 0.0 ], [ 12.482704006121091, 41.905071001144449, 0.0 ], [ 12.482594006121145, 41.905242001144416, 0.0 ], [ 12.482494006121202, 41.905381001144427, 0.0 ], [ 12.482213006121333, 41.905675001144438, 0.0 ], [ 12.482129006121376, 41.905748001144417, 0.0 ], [ 12.482036006121417, 41.90583400114442, 0.0 ], [ 12.481753006121544, 41.906064001144415, 0.0 ], [ 12.481242006121775, 41.906512001144421, 0.0 ] ] } },
{ "type": "Feature", "properties": { "Name": null, "descriptio": "descrizione: descrizione: descrizione: <br>Layer: 0<br>EntityHandle: 20165<br>Layer: 0<br>EntityHandle: 20165<br>Layer: 0<br>EntityHandle: 20165", "timestamp": null, "begin": null, "end": null, "altitudeMo": null, "tessellate": 1, "extrude": 0, "visibility": -1, "drawOrder": null, "icon": null, "descrizion": "descrizione: descrizione: \nLayer: 0\nEntityHandle: 20165\nLayer: 0\nEntityHandle: 20165", "Layer": "0", "EntityHand": "20165", "length_m": 2.8756857991992351, "covered_length": 0.0, "coverage_pct": 0.0 }, "geometry": { "type": "LineString", "coordinates": [ [ 12.507112006110066, 41.885517001144898, 0.0 ], [ 12.507108006110068, 41.885536001144906, 0.0 ] ] } },
{ "type": "Feature", "properties": { "Name": null, "descriptio": "descrizione: descrizione: descrizione: <br>Layer: 0<br>EntityHandle: 2017B<br>Layer: 0<br>EntityHandle: 2017B<br>Layer: 0<br>EntityHandle: 2017B", "timestamp": null, "begin": null, "end": null, "altitudeMo": null, "tessellate": 1, "extrude": 0, "visibility": -1, "drawOrder": null, "icon": null, "descrizion": "descrizione: descrizione: \nLayer: 0\nEntityHandle: 2017B\nLayer: 0\nEntityHandle: 2017B", "Layer": "0", "EntityHand": "2017B", "length_m": 174.10988986555734, "covered_length": 0.0, "coverage_pct": 0.0 }, "geometry": { "type": "LineString", "coordinates": [ [ 12.490250006115645, 41.880074001146127, 0.0 ], [ 12.490012006115682, 41.879629001146185, 0.0 ], [ 12.489730006115742, 41.879207001146227, 0.0 ], [ 12.489570006115779, 41.879029001146257, 0.0 ] ] } },
{ "type": "Feature", "properties": { "Name": null, "descriptio": "descrizione: descrizione: descrizione: <br>Layer: 0<br>EntityHandle: 203D4<br>Layer: 0<br>EntityHandle: 203D4<br>Layer: 0<br>EntityHandle: 203D4", "timestamp": null, "begin": null, "end": null, "altitudeMo": null, "tessellate": 1, "extrude": 0, "visibility": -1, "drawOrder": null, "icon": null, "descrizion": "descrizione: descrizione: \nLayer: 0\nEntityHandle: 203D4\nLayer: 0\nEntityHandle: 203D4", "Layer": "0", "EntityHand": "203D4", "length_m": 181.224000877647, "covered_length": 0.0, "coverage_pct": 0.0 }, "geometry": { "type": "LineString", "coordinates": [ [ 12.478531006122569, 41.904692001144667, 0.0 ], [ 12.478637006122499, 41.904449001144698, 0.0 ], [ 12.478922006122412, 41.904559001144662, 0.0 ], [ 12.479060006122367, 41.904611001144687, 0.0 ], [ 12.479148006122342, 41.904643001144663, 0.0 ], [ 12.479107006122359, 41.904728001144647, 0.0 ], [ 12.478868006122445, 41.904670001144666, 0.0 ], [ 12.478531006122569, 41.904692001144667, 0.0 ] ] } },
{ "type": "Feature", "properties": { "Name": null, "descriptio": "descrizione: descrizione: descrizione: <br>Layer: 0<br>EntityHandle: 203E1<br>Layer: 0<br>EntityHandle: 203E1<br>Layer: 0<br>EntityHandle: 203E1", "timestamp": null, "begin": null, "end": null, "altitudeMo": null, "tessellate": 1, "extrude": 0, "visibility": -1, "drawOrder": null, "icon": null, "descrizion": "descrizione: descrizione: \nLayer: 0\nEntityHandle: 203E1\nLayer: 0\nEntityHandle: 203E1", "Layer": "0", "EntityHand": "203E1", "length_m": 111.80429388166675, "covered_length": 0.0, "coverage_pct": 0.0 }, "geometry": { "type": "LineString", "coordinates": [ [ 12.483006006120926, 41.904611001144481, 0.0 ], [ 12.482865006121006, 41.904828001144452, 0.0 ], [ 12.482853006121015, 41.904849001144449, 0.0 ], [ 12.48309500612093, 41.904914001144448, 0.0 ], [ 12.483129006120913, 41.90488900114444, 0.0 ], [ 12.483376006120798, 41.90471000114443, 0.0 ] ] } },
{ "type": "Feature", "properties": { "Name": null, "descriptio": "descrizione: descrizione: descrizione: <br>Layer: 0<br>EntityHandle: 204FD<br>Layer: 0<br>EntityHandle: 204FD<br>Layer: 0<br>EntityHandle: 204FD", "timestamp": null, "begin": null, "end": null, "altitudeMo": null, "tessellate": 1, "extrude": 0, "visibility": -1, "drawOrder": null, "icon": null, "descrizion": "descrizione: descrizione: \nLayer: 0\nEntityHandle: 204FD\nLayer: 0\nEntityHandle: 204FD", "Layer": "0", "EntityHand": "204FD", "length_m": 475.04717360725135, "covered_length": 0.0, "coverage_pct": 0.0 }, "geometry": { "type": "LineString", "coordinates": [ [ 12.49009600611584, 41.881392001146025, 0.0 ], [ 12.490140006115791, 41.881069001146081, 0.0 ], [ 12.490245006115673, 41.880313001146106, 0.0 ], [ 12.490247006115661, 41.880242001146144, 0.0 ], [ 12.490250006115645, 41.880074001146127, 0.0 ], [ 12.490168006115638, 41.879750001146157, 0.0 ], [ 12.490076006115647, 41.879557001146168, 0.0 ], [ 12.489821006115708, 41.87920800114621, 0.0 ], [ 12.489729006115729, 41.879088001146258, 0.0 ], [ 12.489678006115737, 41.878975001146252, 0.0 ], [ 12.489758006115691, 41.87890800114625, 0.0 ], [ 12.489894006115632, 41.878793001146263, 0.0 ], [ 12.489825006115684, 41.878993001146227, 0.0 ], [ 12.489821006115708, 41.87920800114621, 0.0 ] ] } },
{ "type": "Feature", "properties": { "Name": null, "descriptio": "descrizione: descrizione: descrizione: <br>Layer: 0<br>EntityHandle: 20571<br>Layer: 0<br>EntityHandle: 20571<br>Layer: 0<br>EntityHandle: 20571", "timestamp": null, "begin": null, "end": null, "altitudeMo": null, "tessellate": 1, "extrude": 0, "visibility": -1, "drawOrder": null, "icon": null, "descrizion": "descrizione: descrizione: \nLayer: 0\nEntityHandle: 20571\nLayer: 0\nEntityHandle: 20571", "Layer": "0", "EntityHand": "20571", "length_m": 266.48799640937324, "covered_length": 0.0, "coverage_pct": 0.0 }, "geometry": { "type": "LineString", "coordinates": [ [ 12.483295006120896, 41.905258001144382, 0.0 ], [ 12.483210006120943, 41.905476001144393, 0.0 ], [ 12.483325006120905, 41.905490001144393, 0.0 ], [ 12.483373006120893, 41.905498001144402, 0.0 ], [ 12.483449006120866, 41.905504001144372, 0.0 ], [ 12.483472006120842, 41.905446001144369, 0.0 ], [ 12.483509006120824, 41.90535100114441, 0.0 ], [ 12.483433006120855, 41.905335001144394, 0.0 ], [ 12.483545006120782, 41.905046001144392, 0.0 ], [ 12.483180006120904, 41.904946001144445, 0.0 ], [ 12.483114006120934, 41.904999001144432, 0.0 ], [ 12.482934006121013, 41.905156001144412, 0.0 ], [ 12.483295006120896, 41.905258001144382, 0.0 ] ] } },
{ "type": "Feature", "properties": { "Name": null, "descriptio": "descrizione: descrizione: descrizione: <br>Layer: 0<br>EntityHandle: 205F3<br>Layer: 0<br>EntityHandle: 205F3<br>Layer: 0<br>EntityHandle: 205F3", "timestamp": null, "begin": null, "end": null, "altitudeMo": null, "tessellate": 1, "extrude": 0, "visibility": -1, "drawOrder": null, "icon": null, "descrizion": "descrizione: descrizione: \nLayer: 0\nEntityHandle: 205F3\nLayer: 0\nEntityHandle: 205F3", "Layer": "0", "EntityHand": "205F3", "length_m": 106.82714999071389, "covered_length": 0.0, "coverage_pct": 0.0 }, "geometry": { "type": "LineString", "coordinates": [ [ 12.48309500612093, 41.904914001144448, 0.0 ], [ 12.48308200612094, 41.904951001144454, 0.0 ], [ 12.483114006120934, 41.904999001144432, 0.0 ], [ 12.483439006120822, 41.905084001144402, 0.0 ], [ 12.483389006120852, 41.90521900114441, 0.0 ], [ 12.483324006120899, 41.905397001144387, 0.0 ], [ 12.483354006120891, 41.905432001144405, 0.0 ] ] } },
{ "type": "Feature", "properties": { "Name": null, "descriptio": "descrizione: descrizione: descrizione: <br>Layer: 0<br>EntityHandle: 2066C<br>Layer: 0<br>EntityHandle: 2066C<br>Layer: 0<br>EntityHandle: 2066C", "timestamp": null, "begin": null, "end": null, "altitudeMo": null, "tessellate": 1, "extrude": 0, "visibility": -1, "drawOrder": null, "icon": null, "descrizion": "descrizione: descrizione: \nLayer: 0\nEntityHandle: 2066C\nLayer: 0\nEntityHandle: 2066C", "Layer": "0", "EntityHand": "2066C", "length_m": 886.32202791279235, "covered_length": 0.0, "coverage_pct": 0.0 }, "geometry": { "type": "LineString", "coordinates": [ [ 12.481999006121518, 41.906696001144354, 0.0 ], [ 12.481295006121764, 41.906525001144402, 0.0 ], [ 12.481242006121775, 41.906512001144421, 0.0 ], [ 12.481216006121784, 41.906536001144389, 0.0 ], [ 12.481174006121808, 41.906576001144387, 0.0 ], [ 12.480546006122101, 41.907107001144404, 0.0 ], [ 12.47979800612244, 41.907738001144352, 0.0 ], [ 12.479461006122593, 41.908030001144368, 0.0 ], [ 12.47942800612261, 41.90805700114435, 0.0 ], [ 12.478956006122816, 41.908454001144356, 0.0 ], [ 12.478743006122919, 41.908658001144339, 0.0 ], [ 12.478503006123033, 41.908858001144324, 0.0 ], [ 12.477908006123295, 41.909365001144337, 0.0 ], [ 12.477472006123497, 41.9097370011443, 0.0 ], [ 12.477070006123677, 41.910071001144296, 0.0 ], [ 12.477020006123706, 41.910119001144317, 0.0 ], [ 12.476942006123748, 41.910205001144313, 0.0 ], [ 12.47689100612377, 41.91027900114431, 0.0 ], [ 12.476882006123777, 41.910350001144295, 0.0 ], [ 12.476837006123802, 41.910361001144317, 0.0 ], [ 12.476755006123827, 41.910362001144293, 0.0 ], [ 12.476506006123913, 41.910305001144309, 0.0 ] ] } },
{ "type": "Feature", "properties": { "Name": null, "descriptio": "descrizione: descrizione: descrizione: <br>Layer: 0<br>EntityHandle: 20671<br>Layer: 0<br>EntityHandle: 20671<br>Layer: 0<br>EntityHandle: 20671", "timestamp": null, "begin": null, "end": null, "altitudeMo": null, "tessellate": 1, "extrude": 0, "visibility": -1, "drawOrder": null, "icon": null, "descrizion": "descrizione: descrizione: \nLayer: 0\nEntityHandle: 20671\nLayer: 0\nEntityHandle: 20671", "Layer": "0", "EntityHand": "20671", "length_m": 1107.1571657788268, "covered_length": 0.0, "coverage_pct": 0.0 }, "geometry": { "type": "LineString", "coordinates": [ [ 12.489894006115632, 41.878793001146263, 0.0 ], [ 12.489938006115617, 41.878747001146237, 0.0 ], [ 12.490143006115531, 41.878605001146262, 0.0 ], [ 12.490362006115427, 41.878489001146271, 0.0 ], [ 12.49054800611535, 41.878377001146255, 0.0 ], [ 12.491056006115132, 41.878069001146244, 0.0 ], [ 12.491774006114818, 41.877559001146288, 0.0 ], [ 12.492405006114538, 41.877049001146283, 0.0 ], [ 12.492798006114363, 41.876820001146292, 0.0 ], [ 12.493148006114197, 41.876544001146286, 0.0 ], [ 12.492552006114451, 41.876829001146277, 0.0 ], [ 12.492310006114558, 41.8769830011463, 0.0 ], [ 12.492044006114673, 41.87718400114629, 0.0 ], [ 12.491683006114844, 41.877480001146274, 0.0 ], [ 12.491302006115014, 41.877792001146275, 0.0 ], [ 12.490913006115182, 41.878048001146269, 0.0 ], [ 12.490524006115352, 41.87828100114627, 0.0 ], [ 12.490479006115367, 41.878306001146278, 0.0 ], [ 12.490070006115541, 41.878535001146268, 0.0 ], [ 12.489725006115693, 41.87875200114626, 0.0 ], [ 12.48956100611576, 41.878852001146271, 0.0 ], [ 12.489620006115743, 41.878861001146277, 0.0 ], [ 12.489664006115728, 41.878888001146265, 0.0 ], [ 12.489683006115724, 41.878917001146249, 0.0 ], [ 12.489678006115737, 41.878975001146252, 0.0 ], [ 12.48963400611575, 41.879014001146238, 0.0 ], [ 12.489570006115779, 41.879029001146257, 0.0 ], [ 12.489492006115798, 41.879008001146232, 0.0 ], [ 12.489462006115808, 41.878979001146242, 0.0 ], [ 12.489451006115813, 41.878947001146244, 0.0 ], [ 12.489463006115805, 41.878900001146263, 0.0 ], [ 12.489507006115787, 41.878866001146271, 0.0 ], [ 12.48956100611576, 41.878852001146271, 0.0 ] ] } },
{ "type": "Feature", "properties": { "Name": null, "descriptio": "descrizione: descrizione: descrizione: <br>Layer: 0<br>EntityHandle: 20673<br>Layer: 0<br>EntityHandle: 20673<br>Layer: 0<br>EntityHandle: 20673", "timestamp": null, "begin": null, "end": null, "altitudeMo": null, "tessellate": 1, "extrude": 0, "visibility": -1, "drawOrder": null, "icon": null, "descrizion": "descrizione: descrizione: \nLayer: 0\nEntityHandle: 20673\nLayer: 0\nEntityHandle: 20673", "Layer": "0", "EntityHand": "20673", "length_m": 26.660198061764582, "covered_length": 0.0, "coverage_pct": 0.0 }, "geometry": { "type": "LineString", "coordinates": [ [ 12.482436006121263, 41.905740001144423, 0.0 ], [ 12.482213006121333, 41.905675001144438, 0.0 ] ] } },
{ "type": "Feature", "properties": { "Name": null, "descriptio": "descrizione: descrizione: descrizione: <br>Layer: 0<br>EntityHandle: 20D6E<br>Layer: 0<br>EntityHandle: 20D6E<br>Layer: 0<br>EntityHandle: 20D6E", "timestamp": null, "begin": null, "end": null, "altitudeMo": null, "tessellate": 1, "extrude": 0, "visibility": -1, "drawOrder": null, "icon": null, "descrizion": "descrizione: descrizione: \nLayer: 0\nEntityHandle: 20D6E\nLayer: 0\nEntityHandle: 20D6E", "Layer": "0", "EntityHand": "20D6E", "length_m": 109.27192229359471, "covered_length": 0.0, "coverage_pct": 0.0 }, "geometry": { "type": "LineString", "coordinates": [ [ 12.562203006094798, 41.931846001138574, 0.0 ], [ 12.562448006094687, 41.931539001138589, 0.0 ], [ 12.562886006094534, 41.931721001138555, 0.0 ] ] } },
{ "type": "Feature", "properties": { "Name": null, "descriptio": "descrizione: descrizione: descrizione: <br>Layer: 0<br>EntityHandle: 20E73<br>Layer: 0<br>EntityHandle: 20E73<br>Layer: 0<br>EntityHandle: 20E73", "timestamp": null, "begin": null, "end": null, "altitudeMo": null, "tessellate": 1, "extrude": 0, "visibility": -1, "drawOrder": null, "icon": null, "descrizion": "descrizione: descrizione: \nLayer: 0\nEntityHandle: 20E73\nLayer: 0\nEntityHandle: 20E73", "Layer": "0", "EntityHand": "20E73", "length_m": 138.94807599155112, "covered_length": 0.0, "coverage_pct": 0.0 }, "geometry": { "type": "LineString", "coordinates": [ [ 12.564653006087866, 41.875818001143031, 0.0 ], [ 12.564739006087837, 41.875868001143019, 0.0 ], [ 12.56479200608783, 41.875988001142971, 0.0 ], [ 12.564776006087861, 41.876184001142981, 0.0 ], [ 12.564723006087888, 41.876286001142994, 0.0 ], [ 12.56460700608795, 41.87644800114299, 0.0 ], [ 12.56448300608799, 41.876402001142985, 0.0 ], [ 12.564412006088018, 41.876368001142986, 0.0 ], [ 12.564366006088026, 41.876311001142994, 0.0 ] ] } },
{ "type": "Feature", "properties": { "Name": null, "descriptio": "descrizione: descrizione: descrizione: <br>Layer: 0<br>EntityHandle: 210D7<br>Layer: 0<br>EntityHandle: 210D7<br>Layer: 0<br>EntityHandle: 210D7", "timestamp": null, "begin": null, "end": null, "altitudeMo": null, "tessellate": 1, "extrude": 0, "visibility": -1, "drawOrder": null, "icon": null, "descrizion": "descrizione: descrizione: \nLayer: 0\nEntityHandle: 210D7\nLayer: 0\nEntityHandle: 210D7", "Layer": "0", "EntityHand": "210D7", "length_m": 188.21458194806911, "covered_length": 0.0, "coverage_pct": 0.0 }, "geometry": { "type": "LineString", "coordinates": [ [ 12.676172006046681, 41.878459001137699, 0.0 ], [ 12.675860006046763, 41.878117001137731, 0.0 ], [ 12.675338006046886, 41.877467001137802, 0.0 ], [ 12.675332006046874, 41.877379001137804, 0.0 ] ] } },
{ "type": "Feature", "properties": { "Name": null, "descriptio": "descrizione: descrizione: descrizione: <br>Layer: 0<br>EntityHandle: 211DC<br>Layer: 0<br>EntityHandle: 211DC<br>Layer: 0<br>EntityHandle: 211DC", "timestamp": null, "begin": null, "end": null, "altitudeMo": null, "tessellate": 1, "extrude": 0, "visibility": -1, "drawOrder": null, "icon": null, "descrizion": "descrizione: descrizione: \nLayer: 0\nEntityHandle: 211DC\nLayer: 0\nEntityHandle: 211DC", "Layer": "0", "EntityHand": "211DC", "length_m": 93.894184915136321, "covered_length": 0.0, "coverage_pct": 0.0 }, "geometry": { "type": "LineString", "coordinates": [ [ 12.575189006082441, 41.861546001143722, 0.0 ], [ 12.575280006082421, 41.861646001143697, 0.0 ], [ 12.575298006082424, 41.861713001143677, 0.0 ], [ 12.575278006082439, 41.86178100114369, 0.0 ], [ 12.575419006082374, 41.861678001143666, 0.0 ], [ 12.57561300608228, 41.861509001143659, 0.0 ] ] } },
{ "type": "Feature", "properties": { "Name": null, "descriptio": "descrizione: descrizione: descrizione: <br>Layer: 0<br>EntityHandle: 2123F<br>Layer: 0<br>EntityHandle: 2123F<br>Layer: 0<br>EntityHandle: 2123F", "timestamp": null, "begin": null, "end": null, "altitudeMo": null, "tessellate": 1, "extrude": 0, "visibility": -1, "drawOrder": null, "icon": null, "descrizion": "descrizione: descrizione: \nLayer: 0\nEntityHandle: 2123F\nLayer: 0\nEntityHandle: 2123F", "Layer": "0", "EntityHand": "2123F", "length_m": 79.531362517792616, "covered_length": 0.0, "coverage_pct": 0.0 }, "geometry": { "type": "LineString", "coordinates": [ [ 12.575005006082574, 41.862052001143681, 0.0 ], [ 12.575115006082514, 41.861951001143673, 0.0 ], [ 12.575216006082464, 41.861827001143673, 0.0 ], [ 12.575278006082439, 41.86178100114369, 0.0 ], [ 12.57520400608246, 41.86178800114368, 0.0 ], [ 12.575117006082497, 41.861794001143679, 0.0 ], [ 12.575022006082527, 41.861786001143678, 0.0 ] ] } },
{ "type": "Feature", "properties": { "Name": null, "descriptio": "descrizione: descrizione: descrizione: <br>Layer: 0<br>EntityHandle: 214CB<br>Layer: 0<br>EntityHandle: 214CB<br>Layer: 0<br>EntityHandle: 214CB", "timestamp": null, "begin": null, "end": null, "altitudeMo": null, "tessellate": 1, "extrude": 0, "visibility": -1, "drawOrder": null, "icon": null, "descrizion": "descrizione: descrizione: \nLayer: 0\nEntityHandle: 214CB\nLayer: 0\nEntityHandle: 214CB", "Layer": "0", "EntityHand": "214CB", "length_m": 852.1498911046624, "covered_length": 0.0, "coverage_pct": 0.0 }, "geometry": { "type": "LineString", "coordinates": [ [ 12.525352006099329, 41.847856001147122, 0.0 ], [ 12.525691006099173, 41.847557001147116, 0.0 ], [ 12.526239006098921, 41.847074001147128, 0.0 ], [ 12.526279006098902, 41.847036001147153, 0.0 ], [ 12.52643200609883, 41.846900001147148, 0.0 ], [ 12.526488006098804, 41.846852001147141, 0.0 ], [ 12.52744200609837, 41.846008001147162, 0.0 ], [ 12.528207006098006, 41.845332001147192, 0.0 ], [ 12.528270006097978, 41.845276001147191, 0.0 ], [ 12.529195006097554, 41.844458001147231, 0.0 ], [ 12.529227006097537, 41.844430001147209, 0.0 ], [ 12.529849006097253, 41.843869001147247, 0.0 ], [ 12.530094006097139, 41.843649001147242, 0.0 ], [ 12.530192006097089, 41.843560001147253, 0.0 ], [ 12.53024100609707, 41.843517001147241, 0.0 ], [ 12.530273006097051, 41.843488001147236, 0.0 ] ] } },
{ "type": "Feature", "properties": { "Name": null, "descriptio": "descrizione: descrizione: descrizione: <br>Layer: 0<br>EntityHandle: 21509<br>Layer: 0<br>EntityHandle: 21509<br>Layer: 0<br>EntityHandle: 21509", "timestamp": null, "begin": null, "end": null, "altitudeMo": null, "tessellate": 1, "extrude": 0, "visibility": -1, "drawOrder": null, "icon": null, "descrizion": "descrizione: descrizione: \nLayer: 0\nEntityHandle: 21509\nLayer: 0\nEntityHandle: 21509", "Layer": "0", "EntityHand": "21509", "length_m": 762.50743386126794, "covered_length": 0.0, "coverage_pct": 0.0 }, "geometry": { "type": "LineString", "coordinates": [ [ 12.589833006069394, 41.790345001148808, 0.0 ], [ 12.591598006068573, 41.788779001148853, 0.0 ], [ 12.592770006068031, 41.787765001148891, 0.0 ], [ 12.593089006067885, 41.787488001148908, 0.0 ], [ 12.593890006067509, 41.786795001148903, 0.0 ], [ 12.594045006067436, 41.786635001148895, 0.0 ], [ 12.594065006067424, 41.786551001148936, 0.0 ], [ 12.594070006067415, 41.786526001148921, 0.0 ], [ 12.59418900606736, 41.786424001148923, 0.0 ] ] } },
{ "type": "Feature", "properties": { "Name": null, "descriptio": "descrizione: descrizione: descrizione: <br>Layer: 0<br>EntityHandle: 2153D<br>Layer: 0<br>EntityHandle: 2153D<br>Layer: 0<br>EntityHandle: 2153D", "timestamp": null, "begin": null, "end": null, "altitudeMo": null, "tessellate": 1, "extrude": 0, "visibility": -1, "drawOrder": null, "icon": null, "descrizion": "descrizione: descrizione: \nLayer: 0\nEntityHandle: 2153D\nLayer: 0\nEntityHandle: 2153D", "Layer": "0", "EntityHand": "2153D", "length_m": 181.51494422045334, "covered_length": 0.0, "coverage_pct": 0.0 }, "geometry": { "type": "LineString", "coordinates": [ [ 12.474364006115383, 41.823854001151439, 0.0 ], [ 12.474976006115158, 41.823810001151422, 0.0 ], [ 12.475987006114785, 41.8237370011514, 0.0 ] ] } },
{ "type": "Feature", "properties": { "Name": null, "descriptio": "descrizione: descrizione: descrizione: <br>Layer: 0<br>EntityHandle: 21556<br>Layer: 0<br>EntityHandle: 21556<br>Layer: 0<br>EntityHandle: 21556", "timestamp": null, "begin": null, "end": null, "altitudeMo": null, "tessellate": 1, "extrude": 0, "visibility": -1, "drawOrder": null, "icon": null, "descrizion": "descrizione: descrizione: \nLayer: 0\nEntityHandle: 21556\nLayer: 0\nEntityHandle: 21556", "Layer": "0", "EntityHand": "21556", "length_m": 59.442386423817737, "covered_length": 0.0, "coverage_pct": 0.0 }, "geometry": { "type": "LineString", "coordinates": [ [ 12.474458006116086, 41.83072100115087, 0.0 ], [ 12.474513006116066, 41.830666001150881, 0.0 ], [ 12.474588006116035, 41.830632001150882, 0.0 ], [ 12.474653006116004, 41.830568001150894, 0.0 ], [ 12.474701006115977, 41.830508001150889, 0.0 ], [ 12.474787006115932, 41.830414001150885, 0.0 ] ] } },
{ "type": "Feature", "properties": { "Name": null, "descriptio": "descrizione: descrizione: descrizione: <br>Layer: 0<br>EntityHandle: 2155A<br>Layer: 0<br>EntityHandle: 2155A<br>Layer: 0<br>EntityHandle: 2155A", "timestamp": null, "begin": null, "end": null, "altitudeMo": null, "tessellate": 1, "extrude": 0, "visibility": -1, "drawOrder": null, "icon": null, "descrizion": "descrizione: descrizione: \nLayer: 0\nEntityHandle: 2155A\nLayer: 0\nEntityHandle: 2155A", "Layer": "0", "EntityHand": "2155A", "length_m": 145.1665590818275, "covered_length": 0.0, "coverage_pct": 0.0 }, "geometry": { "type": "LineString", "coordinates": [ [ 12.474438006116522, 41.834641001150572, 0.0 ], [ 12.473548006116868, 41.834892001150592, 0.0 ], [ 12.473485006116894, 41.834885001150596, 0.0 ], [ 12.473436006116906, 41.834849001150609, 0.0 ], [ 12.473367006116925, 41.834767001150603, 0.0 ], [ 12.473307006116935, 41.834717001150601, 0.0 ] ] } },
{ "type": "Feature", "properties": { "Name": null, "descriptio": "descrizione: descrizione: descrizione: <br>Layer: 0<br>EntityHandle: 21564<br>Layer: 0<br>EntityHandle: 21564<br>Layer: 0<br>EntityHandle: 21564", "timestamp": null, "begin": null, "end": null, "altitudeMo": null, "tessellate": 1, "extrude": 0, "visibility": -1, "drawOrder": null, "icon": null, "descrizion": "descrizione: descrizione: \nLayer: 0\nEntityHandle: 21564\nLayer: 0\nEntityHandle: 21564", "Layer": "0", "EntityHand": "21564", "length_m": 396.3922904879642, "covered_length": 0.0, "coverage_pct": 0.0 }, "geometry": { "type": "LineString", "coordinates": [ [ 12.478207006114662, 41.830113001150757, 0.0 ], [ 12.478249006114657, 41.830195001150749, 0.0 ], [ 12.478593006114599, 41.830853001150665, 0.0 ], [ 12.478858006114553, 41.831362001150616, 0.0 ], [ 12.47888600611455, 41.831415001150617, 0.0 ], [ 12.479225006114495, 41.832065001150553, 0.0 ], [ 12.479497006114457, 41.832586001150489, 0.0 ] ] } },
{ "type": "Feature", "properties": { "Name": null, "descriptio": "descrizione: descrizione: descrizione: <br>Layer: 0<br>EntityHandle: 21566<br>Layer: 0<br>EntityHandle: 21566<br>Layer: 0<br>EntityHandle: 21566", "timestamp": null, "begin": null, "end": null, "altitudeMo": null, "tessellate": 1, "extrude": 0, "visibility": -1, "drawOrder": null, "icon": null, "descrizion": "descrizione: descrizione: \nLayer: 0\nEntityHandle: 21566\nLayer: 0\nEntityHandle: 21566", "Layer": "0", "EntityHand": "21566", "length_m": 87.315088047508269, "covered_length": 0.0, "coverage_pct": 0.0 }, "geometry": { "type": "LineString", "coordinates": [ [ 12.477183006114858, 41.828492001150913, 0.0 ], [ 12.477368006114785, 41.828440001150931, 0.0 ], [ 12.477600006114697, 41.828374001150912, 0.0 ], [ 12.477634006114679, 41.828365001150907, 0.0 ], [ 12.477916006114567, 41.828284001150905, 0.0 ] ] } },
{ "type": "Feature", "properties": { "Name": null, "descriptio": "descrizione: descrizione: descrizione: <br>Layer: 0<br>EntityHandle: 21571<br>Layer: 0<br>EntityHandle: 21571<br>Layer: 0<br>EntityHandle: 21571", "timestamp": null, "begin": null, "end": null, "altitudeMo": null, "tessellate": 1, "extrude": 0, "visibility": -1, "drawOrder": null, "icon": null, "descrizion": "descrizione: descrizione: \nLayer: 0\nEntityHandle: 21571\nLayer: 0\nEntityHandle: 21571", "Layer": "0", "EntityHand": "21571", "length_m": 494.5104578777316, "covered_length": 0.0, "coverage_pct": 0.0 }, "geometry": { "type": "LineString", "coordinates": [ [ 12.466735006119794, 41.839038001150548, 0.0 ], [ 12.466495006119867, 41.838946001150568, 0.0 ], [ 12.466348006119924, 41.838868001150594, 0.0 ], [ 12.466222006119951, 41.838788001150611, 0.0 ], [ 12.466124006119978, 41.838702001150608, 0.0 ], [ 12.46603300612, 41.838599001150627, 0.0 ], [ 12.465974006120007, 41.838494001150657, 0.0 ], [ 12.465953006120017, 41.83843200115065, 0.0 ], [ 12.46593700612001, 41.838353001150658, 0.0 ], [ 12.465926006120004, 41.838262001150667, 0.0 ], [ 12.465926006119988, 41.838170001150637, 0.0 ], [ 12.465935006119981, 41.838080001150679, 0.0 ], [ 12.465963006119964, 41.837992001150681, 0.0 ], [ 12.466018006119937, 41.837909001150699, 0.0 ], [ 12.466075006119901, 41.837828001150704, 0.0 ], [ 12.466264006119815, 41.8376470011507, 0.0 ], [ 12.46644300611973, 41.83749100115071, 0.0 ], [ 12.466621006119654, 41.83735600115071, 0.0 ], [ 12.46686000611955, 41.837205001150686, 0.0 ], [ 12.466994006119489, 41.837144001150712, 0.0 ], [ 12.467119006119447, 41.837092001150715, 0.0 ], [ 12.467365006119348, 41.837018001150696, 0.0 ], [ 12.467494006119301, 41.836979001150709, 0.0 ], [ 12.467621006119243, 41.836940001150694, 0.0 ], [ 12.468022006119085, 41.836814001150678, 0.0 ] ] } },
{ "type": "Feature", "properties": { "Name": null, "descriptio": "descrizione: descrizione: descrizione: <br>Layer: 0<br>EntityHandle: 21579<br>Layer: 0<br>EntityHandle: 21579<br>Layer: 0<br>EntityHandle: 21579", "timestamp": null, "begin": null, "end": null, "altitudeMo": null, "tessellate": 1, "extrude": 0, "visibility": -1, "drawOrder": null, "icon": null, "descrizion": "descrizione: descrizione: \nLayer: 0\nEntityHandle: 21579\nLayer: 0\nEntityHandle: 21579", "Layer": "0", "EntityHand": "21579", "length_m": 206.56926043792623, "covered_length": 0.0, "coverage_pct": 0.0 }, "geometry": { "type": "LineString", "coordinates": [ [ 12.465013006120124, 41.836300001150867, 0.0 ], [ 12.464697006120179, 41.835726001150931, 0.0 ], [ 12.46436800612023, 41.835119001150986, 0.0 ], [ 12.464449006120192, 41.83503000115099, 0.0 ] ] } },
{ "type": "Feature", "properties": { "Name": null, "descriptio": "descrizione: descrizione: descrizione: <br>Layer: 0<br>EntityHandle: 2157E<br>Layer: 0<br>EntityHandle: 2157E<br>Layer: 0<br>EntityHandle: 2157E", "timestamp": null, "begin": null, "end": null, "altitudeMo": null, "tessellate": 1, "extrude": 0, "visibility": -1, "drawOrder": null, "icon": null, "descrizion": "descrizione: descrizione: \nLayer: 0\nEntityHandle: 2157E\nLayer: 0\nEntityHandle: 2157E", "Layer": "0", "EntityHand": "2157E", "length_m": 263.48346677894779, "covered_length": 0.0, "coverage_pct": 0.0 }, "geometry": { "type": "LineString", "coordinates": [ [ 12.458303006121891, 41.830062001151703, 0.0 ], [ 12.458513006121857, 41.830455001151655, 0.0 ], [ 12.458750006121818, 41.830891001151592, 0.0 ], [ 12.458984006121778, 41.831324001151543, 0.0 ], [ 12.459187006121748, 41.831698001151516, 0.0 ] ] } },
{ "type": "Feature", "properties": { "Name": null, "descriptio": "descrizione: descrizione: descrizione: <br>Layer: 0<br>EntityHandle: 2157F<br>Layer: 0<br>EntityHandle: 2157F<br>Layer: 0<br>EntityHandle: 2157F", "timestamp": null, "begin": null, "end": null, "altitudeMo": null, "tessellate": 1, "extrude": 0, "visibility": -1, "drawOrder": null, "icon": null, "descrizion": "descrizione: descrizione: \nLayer: 0\nEntityHandle: 2157F\nLayer: 0\nEntityHandle: 2157F", "Layer": "0", "EntityHand": "2157F", "length_m": 473.38796309752684, "covered_length": 0.0, "coverage_pct": 0.0 }, "geometry": { "type": "LineString", "coordinates": [ [ 12.458203006121929, 41.830110001151667, 0.0 ], [ 12.458407006121899, 41.830486001151655, 0.0 ], [ 12.458641006121862, 41.830920001151597, 0.0 ], [ 12.458869006121825, 41.831356001151548, 0.0 ], [ 12.459064006121798, 41.831732001151508, 0.0 ], [ 12.459282006121766, 41.832152001151478, 0.0 ], [ 12.459459006121733, 41.83250200115144, 0.0 ], [ 12.459726006121702, 41.833068001151382, 0.0 ] ] } },
{ "type": "Feature", "properties": { "Name": null, "descriptio": "descrizione: descrizione: descrizione: <br>Layer: 0<br>EntityHandle: 215D4<br>Layer: 0<br>EntityHandle: 215D4<br>Layer: 0<br>EntityHandle: 215D4", "timestamp": null, "begin": null, "end": null, "altitudeMo": null, "tessellate": 1, "extrude": 0, "visibility": -1, "drawOrder": null, "icon": null, "descrizion": "descrizione: descrizione: \nLayer: 0\nEntityHandle: 215D4\nLayer: 0\nEntityHandle: 215D4", "Layer": "0", "EntityHand": "215D4", "length_m": 176.07816236385918, "covered_length": 0.0, "coverage_pct": 0.0 }, "geometry": { "type": "LineString", "coordinates": [ [ 12.473343006116826, 41.833774001150672, 0.0 ], [ 12.472985006116883, 41.833064001150767, 0.0 ], [ 12.47290800611691, 41.83303900115078, 0.0 ], [ 12.472618006117019, 41.833118001150773, 0.0 ], [ 12.472457006117084, 41.833161001150764, 0.0 ] ] } },
{ "type": "Feature", "properties": { "Name": null, "descriptio": "descrizione: descrizione: descrizione: <br>Layer: 0<br>EntityHandle: 21604<br>Layer: 0<br>EntityHandle: 21604<br>Layer: 0<br>EntityHandle: 21604", "timestamp": null, "begin": null, "end": null, "altitudeMo": null, "tessellate": 1, "extrude": 0, "visibility": -1, "drawOrder": null, "icon": null, "descrizion": "descrizione: descrizione: \nLayer: 0\nEntityHandle: 21604\nLayer: 0\nEntityHandle: 21604", "Layer": "0", "EntityHand": "21604", "length_m": 78.851375135115006, "covered_length": 0.0, "coverage_pct": 0.0 }, "geometry": { "type": "LineString", "coordinates": [ [ 12.469629006118231, 41.834269001150801, 0.0 ], [ 12.469456006118302, 41.834337001150828, 0.0 ], [ 12.468980006118484, 41.834479001150832, 0.0 ] ] } },
{ "type": "Feature", "properties": { "Name": null, "descriptio": "descrizione: descrizione: descrizione: <br>Layer: 0<br>EntityHandle: 21605<br>Layer: 0<br>EntityHandle: 21605<br>Layer: 0<br>EntityHandle: 21605", "timestamp": null, "begin": null, "end": null, "altitudeMo": null, "tessellate": 1, "extrude": 0, "visibility": -1, "drawOrder": null, "icon": null, "descrizion": "descrizione: descrizione: \nLayer: 0\nEntityHandle: 21605\nLayer: 0\nEntityHandle: 21605", "Layer": "0", "EntityHand": "21605", "length_m": 77.194082417950753, "covered_length": 0.0, "coverage_pct": 0.0 }, "geometry": { "type": "LineString", "coordinates": [ [ 12.469275006118279, 41.833568001150887, 0.0 ], [ 12.468626006118535, 41.833750001150918, 0.0 ] ] } },
{ "type": "Feature", "properties": { "Name": null, "descriptio": "descrizione: descrizione: descrizione: <br>Layer: 0<br>EntityHandle: 21671<br>Layer: 0<br>EntityHandle: 21671<br>Layer: 0<br>EntityHandle: 21671", "timestamp": null, "begin": null, "end": null, "altitudeMo": null, "tessellate": 1, "extrude": 0, "visibility": -1, "drawOrder": null, "icon": null, "descrizion": "descrizione: descrizione: \nLayer: 0\nEntityHandle: 21671\nLayer: 0\nEntityHandle: 21671", "Layer": "0", "EntityHand": "21671", "length_m": 156.84740646930214, "covered_length": 0.0, "coverage_pct": 0.0 }, "geometry": { "type": "LineString", "coordinates": [ [ 12.473501006116926, 41.835200001150561, 0.0 ], [ 12.473726006116875, 41.835590001150528, 0.0 ], [ 12.473759006116872, 41.835654001150488, 0.0 ], [ 12.473890006116852, 41.835908001150507, 0.0 ], [ 12.473964006116841, 41.83604100115047, 0.0 ], [ 12.47403600611683, 41.83617100115044, 0.0 ] ] } },
{ "type": "Feature", "properties": { "Name": null, "descriptio": "descrizione: descrizione: descrizione: <br>Layer: 0<br>EntityHandle: 21673<br>Layer: 0<br>EntityHandle: 21673<br>Layer: 0<br>EntityHandle: 21673", "timestamp": null, "begin": null, "end": null, "altitudeMo": null, "tessellate": 1, "extrude": 0, "visibility": -1, "drawOrder": null, "icon": null, "descrizion": "descrizione: descrizione: \nLayer: 0\nEntityHandle: 21673\nLayer: 0\nEntityHandle: 21673", "Layer": "0", "EntityHand": "21673", "length_m": 261.41451117351352, "covered_length": 0.0, "coverage_pct": 0.0 }, "geometry": { "type": "LineString", "coordinates": [ [ 12.474503006116507, 41.834764001150546, 0.0 ], [ 12.473618006116855, 41.835011001150576, 0.0 ], [ 12.473542006116883, 41.835044001150564, 0.0 ], [ 12.473511006116901, 41.835076001150568, 0.0 ], [ 12.473499006116914, 41.835128001150572, 0.0 ], [ 12.473501006116926, 41.835200001150561, 0.0 ], [ 12.473442006116933, 41.835142001150544, 0.0 ], [ 12.473403006116945, 41.835084001150562, 0.0 ], [ 12.473351006116944, 41.834918001150605, 0.0 ], [ 12.473308006116945, 41.834798001150617, 0.0 ], [ 12.473307006116935, 41.834717001150601, 0.0 ], [ 12.473215006116948, 41.834517001150623, 0.0 ], [ 12.473175006116952, 41.83443100115062, 0.0 ] ] } },
{ "type": "Feature", "properties": { "Name": null, "descriptio": "descrizione: descrizione: descrizione: <br>Layer: 0<br>EntityHandle: 21681<br>Layer: 0<br>EntityHandle: 21681<br>Layer: 0<br>EntityHandle: 21681", "timestamp": null, "begin": null, "end": null, "altitudeMo": null, "tessellate": 1, "extrude": 0, "visibility": -1, "drawOrder": null, "icon": null, "descrizion": "descrizione: descrizione: \nLayer: 0\nEntityHandle: 21681\nLayer: 0\nEntityHandle: 21681", "Layer": "0", "EntityHand": "21681", "length_m": 38.130150213836671, "covered_length": 0.0, "coverage_pct": 0.0 }, "geometry": { "type": "LineString", "coordinates": [ [ 12.472188006116321, 41.825179001151426, 0.0 ], [ 12.472168006116336, 41.825279001151422, 0.0 ], [ 12.472168006116339, 41.825337001151418, 0.0 ], [ 12.472170006116349, 41.825363001151409, 0.0 ], [ 12.472175006116355, 41.82543300115141, 0.0 ] ] } },
{ "type": "Feature", "properties": { "Name": null, "descriptio": "descrizione: descrizione: descrizione: <br>Layer: 0<br>EntityHandle: 2168A<br>Layer: 0<br>EntityHandle: 2168A<br>Layer: 0<br>EntityHandle: 2168A", "timestamp": null, "begin": null, "end": null, "altitudeMo": null, "tessellate": 1, "extrude": 0, "visibility": -1, "drawOrder": null, "icon": null, "descrizion": "descrizione: descrizione: \nLayer: 0\nEntityHandle: 2168A\nLayer: 0\nEntityHandle: 2168A", "Layer": "0", "EntityHand": "2168A", "length_m": 30.889347742942647, "covered_length": 0.0, "coverage_pct": 0.0 }, "geometry": { "type": "LineString", "coordinates": [ [ 12.471942006116439, 41.825498001151409, 0.0 ], [ 12.471934006116435, 41.825432001151412, 0.0 ], [ 12.471918006116434, 41.825292001151446, 0.0 ] ] } },
{ "type": "Feature", "properties": { "Name": null, "descriptio": "descrizione: descrizione: descrizione: <br>Layer: 0<br>EntityHandle: 216AD<br>Layer: 0<br>EntityHandle: 216AD<br>Layer: 0<br>EntityHandle: 216AD", "timestamp": null, "begin": null, "end": null, "altitudeMo": null, "tessellate": 1, "extrude": 0, "visibility": -1, "drawOrder": null, "icon": null, "descrizion": "descrizione: descrizione: \nLayer: 0\nEntityHandle: 216AD\nLayer: 0\nEntityHandle: 216AD", "Layer": "0", "EntityHand": "216AD", "length_m": 213.89126668172878, "covered_length": 0.0, "coverage_pct": 0.0 }, "geometry": { "type": "LineString", "coordinates": [ [ 12.468460006118454, 41.832469001151004, 0.0 ], [ 12.468841006118399, 41.833213001150938, 0.0 ], [ 12.468412006118573, 41.833334001150938, 0.0 ], [ 12.468480006118568, 41.833503001150937, 0.0 ], [ 12.468500006118555, 41.833569001150927, 0.0 ], [ 12.468539006118553, 41.833609001150926, 0.0 ] ] } },
{ "type": "Feature", "properties": { "Name": null, "descriptio": "descrizione: descrizione: descrizione: <br>Layer: 0<br>EntityHandle: 216B2<br>Layer: 0<br>EntityHandle: 216B2<br>Layer: 0<br>EntityHandle: 216B2", "timestamp": null, "begin": null, "end": null, "altitudeMo": null, "tessellate": 1, "extrude": 0, "visibility": -1, "drawOrder": null, "icon": null, "descrizion": "descrizione: descrizione: \nLayer: 0\nEntityHandle: 216B2\nLayer: 0\nEntityHandle: 216B2", "Layer": "0", "EntityHand": "216B2", "length_m": 757.58217652281019, "covered_length": 0.0, "coverage_pct": 0.0 }, "geometry": { "type": "LineString", "coordinates": [ [ 12.472115006117024, 41.831414001150932, 0.0 ], [ 12.472839006116903, 41.832779001150755, 0.0 ], [ 12.473012006116837, 41.832725001150791, 0.0 ], [ 12.473303006116714, 41.832640001150779, 0.0 ], [ 12.473732006116546, 41.832510001150759, 0.0 ], [ 12.474175006116372, 41.832382001150762, 0.0 ], [ 12.475028006116036, 41.832130001150738, 0.0 ], [ 12.475592006115811, 41.831966001150739, 0.0 ], [ 12.475743006115785, 41.832255001150692, 0.0 ], [ 12.475964006115751, 41.832697001150649, 0.0 ], [ 12.476099006115737, 41.832980001150617, 0.0 ], [ 12.475708006115891, 41.833098001150617, 0.0 ] ] } },
{ "type": "Feature", "properties": { "Name": null, "descriptio": "descrizione: descrizione: descrizione: <br>Layer: 0<br>EntityHandle: 216C4<br>Layer: 0<br>EntityHandle: 216C4<br>Layer: 0<br>EntityHandle: 216C4", "timestamp": null, "begin": null, "end": null, "altitudeMo": null, "tessellate": 1, "extrude": 0, "visibility": -1, "drawOrder": null, "icon": null, "descrizion": "descrizione: descrizione: \nLayer: 0\nEntityHandle: 216C4\nLayer: 0\nEntityHandle: 216C4", "Layer": "0", "EntityHand": "216C4", "length_m": 149.57433379719259, "covered_length": 0.0, "coverage_pct": 0.0 }, "geometry": { "type": "LineString", "coordinates": [ [ 12.472166006117121, 41.832576001150848, 0.0 ], [ 12.472229006117113, 41.832703001150797, 0.0 ], [ 12.472355006117095, 41.832955001150786, 0.0 ], [ 12.472406006117085, 41.833058001150796, 0.0 ], [ 12.472457006117084, 41.833161001150764, 0.0 ], [ 12.472604006117063, 41.833457001150734, 0.0 ], [ 12.472632006117054, 41.833515001150744, 0.0 ] ] } },
{ "type": "Feature", "properties": { "Name": null, "descriptio": "descrizione: descrizione: descrizione: <br>Layer: 0<br>EntityHandle: 217A8<br>Layer: 0<br>EntityHandle: 217A8<br>Layer: 0<br>EntityHandle: 217A8", "timestamp": null, "begin": null, "end": null, "altitudeMo": null, "tessellate": 1, "extrude": 0, "visibility": -1, "drawOrder": null, "icon": null, "descrizion": "descrizione: descrizione: \nLayer: 0\nEntityHandle: 217A8\nLayer: 0\nEntityHandle: 217A8", "Layer": "0", "EntityHand": "217A8", "length_m": 170.61646089503043, "covered_length": 0.0, "coverage_pct": 0.0 }, "geometry": { "type": "LineString", "coordinates": [ [ 12.471141006117914, 41.836456001150552, 0.0 ], [ 12.471332006117887, 41.836828001150515, 0.0 ], [ 12.471392006117876, 41.836944001150513, 0.0 ], [ 12.471271006117927, 41.836979001150532, 0.0 ], [ 12.471210006117932, 41.836860001150534, 0.0 ], [ 12.471020006117959, 41.836491001150556, 0.0 ] ] } },
{ "type": "Feature", "properties": { "Name": null, "descriptio": "descrizione: descrizione: descrizione: <br>Layer: 0<br>EntityHandle: 217D2<br>Layer: 0<br>EntityHandle: 217D2<br>Layer: 0<br>EntityHandle: 217D2", "timestamp": null, "begin": null, "end": null, "altitudeMo": null, "tessellate": 1, "extrude": 0, "visibility": -1, "drawOrder": null, "icon": null, "descrizion": "descrizione: descrizione: \nLayer: 0\nEntityHandle: 217D2\nLayer: 0\nEntityHandle: 217D2", "Layer": "0", "EntityHand": "217D2", "length_m": 30.929536362565667, "covered_length": 0.0, "coverage_pct": 0.0 }, "geometry": { "type": "LineString", "coordinates": [ [ 12.475661006115438, 41.828727001150966, 0.0 ], [ 12.475921006115335, 41.828654001150959, 0.0 ] ] } },
{ "type": "Feature", "properties": { "Name": null, "descriptio": "descrizione: descrizione: descrizione: <br>Layer: 0<br>EntityHandle: 217DB<br>Layer: 0<br>EntityHandle: 217DB<br>Layer: 0<br>EntityHandle: 217DB", "timestamp": null, "begin": null, "end": null, "altitudeMo": null, "tessellate": 1, "extrude": 0, "visibility": -1, "drawOrder": null, "icon": null, "descrizion": "descrizione: descrizione: \nLayer: 0\nEntityHandle: 217DB\nLayer: 0\nEntityHandle: 217DB", "Layer": "0", "EntityHand": "217DB", "length_m": 58.05065818134338, "covered_length": 0.0, "coverage_pct": 0.0 }, "geometry": { "type": "LineString", "coordinates": [ [ 12.4792630061143, 41.830366001150686, 0.0 ], [ 12.479148006114304, 41.829987001150748, 0.0 ] ] } },
{ "type": "Feature", "properties": { "Name": null, "descriptio": "descrizione: descrizione: descrizione: <br>Layer: 0<br>EntityHandle: 217DF<br>Layer: 0<br>EntityHandle: 217DF<br>Layer: 0<br>EntityHandle: 217DF", "timestamp": null, "begin": null, "end": null, "altitudeMo": null, "tessellate": 1, "extrude": 0, "visibility": -1, "drawOrder": null, "icon": null, "descrizion": "descrizione: descrizione: \nLayer: 0\nEntityHandle: 217DF\nLayer: 0\nEntityHandle: 217DF", "Layer": "0", "EntityHand": "217DF", "length_m": 460.4924534993682, "covered_length": 0.0, "coverage_pct": 0.0 }, "geometry": { "type": "LineString", "coordinates": [ [ 12.478950006114369, 41.829905001150728, 0.0 ], [ 12.478661006114478, 41.829989001150736, 0.0 ], [ 12.478394006114589, 41.830062001150772, 0.0 ], [ 12.478207006114662, 41.830113001150757, 0.0 ], [ 12.478028006114732, 41.830164001150763, 0.0 ], [ 12.477713006114856, 41.830254001150763, 0.0 ], [ 12.47642900611536, 41.830621001150796, 0.0 ], [ 12.475091006115886, 41.831015001150824, 0.0 ] ] } },
{ "type": "Feature", "properties": { "Name": null, "descriptio": "descrizione: descrizione: descrizione: <br>Layer: 0<br>EntityHandle: 217FA<br>Layer: 0<br>EntityHandle: 217FA<br>Layer: 0<br>EntityHandle: 217FA", "timestamp": null, "begin": null, "end": null, "altitudeMo": null, "tessellate": 1, "extrude": 0, "visibility": -1, "drawOrder": null, "icon": null, "descrizion": "descrizione: descrizione: \nLayer: 0\nEntityHandle: 217FA\nLayer: 0\nEntityHandle: 217FA", "Layer": "0", "EntityHand": "217FA", "length_m": 27.344186987628266, "covered_length": 0.0, "coverage_pct": 0.0 }, "geometry": { "type": "LineString", "coordinates": [ [ 12.472076006116376, 41.825293001151429, 0.0 ], [ 12.472084006116368, 41.82526700115141, 0.0 ], [ 12.47212500611635, 41.825224001151447, 0.0 ], [ 12.472188006116321, 41.825179001151426, 0.0 ], [ 12.4722250061163, 41.825152001151423, 0.0 ] ] } },
{ "type": "Feature", "properties": { "Name": null, "descriptio": "descrizione: descrizione: descrizione: <br>Layer: 0<br>EntityHandle: 2182A<br>Layer: 0<br>EntityHandle: 2182A<br>Layer: 0<br>EntityHandle: 2182A", "timestamp": null, "begin": null, "end": null, "altitudeMo": null, "tessellate": 1, "extrude": 0, "visibility": -1, "drawOrder": null, "icon": null, "descrizion": "descrizione: descrizione: \nLayer: 0\nEntityHandle: 2182A\nLayer: 0\nEntityHandle: 2182A", "Layer": "0", "EntityHand": "2182A", "length_m": 112.14696859856791, "covered_length": 0.0, "coverage_pct": 0.0 }, "geometry": { "type": "LineString", "coordinates": [ [ 12.471989006117148, 41.832250001150868, 0.0 ], [ 12.47161500611721, 41.831553001150958, 0.0 ] ] } },
{ "type": "Feature", "properties": { "Name": null, "descriptio": "descrizione: descrizione: descrizione: <br>Layer: 0<br>EntityHandle: 219A4<br>Layer: 0<br>EntityHandle: 219A4<br>Layer: 0<br>EntityHandle: 219A4", "timestamp": null, "begin": null, "end": null, "altitudeMo": null, "tessellate": 1, "extrude": 0, "visibility": -1, "drawOrder": null, "icon": null, "descrizion": "descrizione: descrizione: \nLayer: 0\nEntityHandle: 219A4\nLayer: 0\nEntityHandle: 219A4", "Layer": "0", "EntityHand": "219A4", "length_m": 176.13427580928726, "covered_length": 0.0, "coverage_pct": 0.0 }, "geometry": { "type": "LineString", "coordinates": [ [ 12.348507006160292, 41.820134001157683, 0.0 ], [ 12.348702006160215, 41.820048001157666, 0.0 ], [ 12.348797006160172, 41.819987001157656, 0.0 ], [ 12.34886600616014, 41.819918001157653, 0.0 ], [ 12.348893006160129, 41.819860001157679, 0.0 ], [ 12.348898006160116, 41.819807001157656, 0.0 ], [ 12.348881006160115, 41.819748001157656, 0.0 ], [ 12.348842006160124, 41.819694001157671, 0.0 ], [ 12.348392006160228, 41.819203001157732, 0.0 ] ] } },
{ "type": "Feature", "properties": { "Name": null, "descriptio": "descrizione: descrizione: descrizione: <br>Layer: 0<br>EntityHandle: 219D2<br>Layer: 0<br>EntityHandle: 219D2<br>Layer: 0<br>EntityHandle: 219D2", "timestamp": null, "begin": null, "end": null, "altitudeMo": null, "tessellate": 1, "extrude": 0, "visibility": -1, "drawOrder": null, "icon": null, "descrizion": "descrizione: descrizione: \nLayer: 0\nEntityHandle: 219D2\nLayer: 0\nEntityHandle: 219D2", "Layer": "0", "EntityHand": "219D2", "length_m": 506.77495826533027, "covered_length": 0.0, "coverage_pct": 0.0 }, "geometry": { "type": "LineString", "coordinates": [ [ 12.350175006159676, 41.819918001157596, 0.0 ], [ 12.350512006159553, 41.819915001157568, 0.0 ], [ 12.35098200615939, 41.819892001157569, 0.0 ], [ 12.35163500615915, 41.819856001157525, 0.0 ], [ 12.352749006158742, 41.819736001157459, 0.0 ], [ 12.353090006158608, 41.819692001157478, 0.0 ], [ 12.353310006158532, 41.819641001157464, 0.0 ], [ 12.353675006158388, 41.81953900115743, 0.0 ], [ 12.354340006158136, 41.81935500115744, 0.0 ], [ 12.354600006158032, 41.819262001157441, 0.0 ] ] } },
{ "type": "Feature", "properties": { "Name": null, "descriptio": "descrizione: descrizione: descrizione: <br>Layer: 0<br>EntityHandle: 219D4<br>Layer: 0<br>EntityHandle: 219D4<br>Layer: 0<br>EntityHandle: 219D4", "timestamp": null, "begin": null, "end": null, "altitudeMo": null, "tessellate": 1, "extrude": 0, "visibility": -1, "drawOrder": null, "icon": null, "descrizion": "descrizione: descrizione: \nLayer: 0\nEntityHandle: 219D4\nLayer: 0\nEntityHandle: 219D4", "Layer": "0", "EntityHand": "219D4", "length_m": 203.29242393627703, "covered_length": 0.0, "coverage_pct": 0.0 }, "geometry": { "type": "LineString", "coordinates": [ [ 12.348707006160138, 41.819428001157704, 0.0 ], [ 12.349474006159925, 41.81996500115762, 0.0 ], [ 12.348722006160212, 41.820101001157624, 0.0 ] ] } },
{ "type": "Feature", "properties": { "Name": null, "descriptio": "descrizione: descrizione: descrizione: <br>Layer: 0<br>EntityHandle: 21A21<br>Layer: 0<br>EntityHandle: 21A21<br>Layer: 0<br>EntityHandle: 21A21", "timestamp": null, "begin": null, "end": null, "altitudeMo": null, "tessellate": 1, "extrude": 0, "visibility": -1, "drawOrder": null, "icon": null, "descrizion": "descrizione: descrizione: \nLayer: 0\nEntityHandle: 21A21\nLayer: 0\nEntityHandle: 21A21", "Layer": "0", "EntityHand": "21A21", "length_m": 252.33442218899398, "covered_length": 0.0, "coverage_pct": 0.0 }, "geometry": { "type": "LineString", "coordinates": [ [ 12.340394006162775, 41.816390001158346, 0.0 ], [ 12.340614006162706, 41.81649500115833, 0.0 ], [ 12.340828006162642, 41.816588001158294, 0.0 ], [ 12.340859006162628, 41.816602001158309, 0.0 ], [ 12.341018006162583, 41.816663001158282, 0.0 ], [ 12.341110006162548, 41.816691001158269, 0.0 ], [ 12.341271006162495, 41.816738001158249, 0.0 ], [ 12.341426006162449, 41.816783001158257, 0.0 ], [ 12.34148400616243, 41.816800001158271, 0.0 ], [ 12.341780006162333, 41.816878001158258, 0.0 ], [ 12.342475006162104, 41.817039001158179, 0.0 ] ] } },
{ "type": "Feature", "properties": { "Name": null, "descriptio": "descrizione: descrizione: descrizione: <br>Layer: 0<br>EntityHandle: 21A33<br>Layer: 0<br>EntityHandle: 21A33<br>Layer: 0<br>EntityHandle: 21A33", "timestamp": null, "begin": null, "end": null, "altitudeMo": null, "tessellate": 1, "extrude": 0, "visibility": -1, "drawOrder": null, "icon": null, "descrizion": "descrizione: descrizione: \nLayer: 0\nEntityHandle: 21A33\nLayer: 0\nEntityHandle: 21A33", "Layer": "0", "EntityHand": "21A33", "length_m": 1253.103775464258, "covered_length": 0.0, "coverage_pct": 0.0 }, "geometry": { "type": "LineString", "coordinates": [ [ 12.344396006161654, 41.819220001157923, 0.0 ], [ 12.344688006161517, 41.818866001157957, 0.0 ], [ 12.34475400616148, 41.818808001157947, 0.0 ], [ 12.34482800616145, 41.81875400115792, 0.0 ], [ 12.344909006161418, 41.818706001157921, 0.0 ], [ 12.34499500616138, 41.818666001157943, 0.0 ], [ 12.345074006161351, 41.818634001157953, 0.0 ], [ 12.345159006161321, 41.818609001157952, 0.0 ], [ 12.345248006161286, 41.818593001157936, 0.0 ], [ 12.345310006161263, 41.818583001157926, 0.0 ], [ 12.34539700616123, 41.818576001157922, 0.0 ], [ 12.345485006161192, 41.818574001157934, 0.0 ], [ 12.345554006161173, 41.818575001157939, 0.0 ], [ 12.345624006161149, 41.818580001157919, 0.0 ], [ 12.345740006161112, 41.81860100115793, 0.0 ], [ 12.346039006161012, 41.818678001157899, 0.0 ], [ 12.346097006160992, 41.818687001157876, 0.0 ], [ 12.34616500616097, 41.818692001157885, 0.0 ], [ 12.346230006160949, 41.818693001157875, 0.0 ], [ 12.346290006160922, 41.818690001157854, 0.0 ], [ 12.34633500616091, 41.818686001157886, 0.0 ], [ 12.346381006160895, 41.81868100115787, 0.0 ], [ 12.346427006160875, 41.818673001157876, 0.0 ], [ 12.346474006160861, 41.81866300115788, 0.0 ], [ 12.346543006160834, 41.818646001157866, 0.0 ], [ 12.346620006160801, 41.818620001157868, 0.0 ], [ 12.346740006160754, 41.818574001157856, 0.0 ], [ 12.347090006160613, 41.818421001157873, 0.0 ], [ 12.347131006160593, 41.818407001157865, 0.0 ], [ 12.347178006160576, 41.818397001157862, 0.0 ], [ 12.347225006160555, 41.818392001157861, 0.0 ], [ 12.347273006160544, 41.818392001157854, 0.0 ], [ 12.347315006160535, 41.818399001157857, 0.0 ], [ 12.347357006160516, 41.818411001157848, 0.0 ], [ 12.347397006160506, 41.818428001157834, 0.0 ], [ 12.347436006160491, 41.818445001157848, 0.0 ], [ 12.34796000616034, 41.818815001157787, 0.0 ], [ 12.348118006160302, 41.818957001157749, 0.0 ], [ 12.348252006160269, 41.819106001157756, 0.0 ], [ 12.348016006160343, 41.818943001157777, 0.0 ], [ 12.347646006160442, 41.818683001157829, 0.0 ], [ 12.347452006160506, 41.818569001157833, 0.0 ], [ 12.347301006160537, 41.818485001157846, 0.0 ], [ 12.347148006160591, 41.818410001157858, 0.0 ], [ 12.34697000616065, 41.818328001157887, 0.0 ], [ 12.346538006160779, 41.818147001157911, 0.0 ], [ 12.346164006160892, 41.818023001157925, 0.0 ], [ 12.345723006161043, 41.817898001157957, 0.0 ], [ 12.345188006161219, 41.817766001157999, 0.0 ], [ 12.344858006161321, 41.817688001158011, 0.0 ], [ 12.344791006161348, 41.817670001158035, 0.0 ], [ 12.344732006161367, 41.81765000115805, 0.0 ], [ 12.344629006161403, 41.817612001158047, 0.0 ], [ 12.344353006161493, 41.817517001158059, 0.0 ], [ 12.344281006161506, 41.817496001158084, 0.0 ], [ 12.344167006161546, 41.817464001158072, 0.0 ], [ 12.343806006161664, 41.817372001158091, 0.0 ], [ 12.343788006161668, 41.817367001158097, 0.0 ], [ 12.343643006161717, 41.817330001158126, 0.0 ], [ 12.343533006161762, 41.817301001158135, 0.0 ], [ 12.343259006161841, 41.81722700115813, 0.0 ], [ 12.343175006161871, 41.817206001158169, 0.0 ], [ 12.342616006162054, 41.817076001158178, 0.0 ], [ 12.342475006162104, 41.817039001158179, 0.0 ] ] } },
{ "type": "Feature", "properties": { "Name": null, "descriptio": "descrizione: descrizione: descrizione: <br>Layer: 0<br>EntityHandle: 21A44<br>Layer: 0<br>EntityHandle: 21A44<br>Layer: 0<br>EntityHandle: 21A44", "timestamp": null, "begin": null, "end": null, "altitudeMo": null, "tessellate": 1, "extrude": 0, "visibility": -1, "drawOrder": null, "icon": null, "descrizion": "descrizione: descrizione: \nLayer: 0\nEntityHandle: 21A44\nLayer: 0\nEntityHandle: 21A44", "Layer": "0", "EntityHand": "21A44", "length_m": 585.10920597132713, "covered_length": 0.0, "coverage_pct": 0.0 }, "geometry": { "type": "LineString", "coordinates": [ [ 12.344933006161551, 41.820051001157829, 0.0 ], [ 12.345354006161411, 41.820099001157793, 0.0 ], [ 12.3456790061613, 41.820137001157796, 0.0 ], [ 12.346035006161173, 41.820166001157759, 0.0 ], [ 12.346493006161015, 41.820186001157737, 0.0 ], [ 12.347672006160593, 41.820187001157713, 0.0 ], [ 12.347927006160507, 41.820183001157673, 0.0 ], [ 12.348171006160415, 41.820166001157666, 0.0 ], [ 12.348507006160292, 41.820134001157683, 0.0 ], [ 12.348722006160212, 41.820101001157624, 0.0 ], [ 12.348961006160122, 41.820100001157634, 0.0 ], [ 12.349086006160084, 41.820105001157614, 0.0 ], [ 12.349201006160042, 41.82011400115762, 0.0 ], [ 12.349290006160018, 41.820125001157621, 0.0 ], [ 12.349380006159979, 41.820137001157605, 0.0 ], [ 12.349462006159952, 41.820155001157623, 0.0 ], [ 12.349543006159927, 41.82018000115761, 0.0 ], [ 12.349663006159895, 41.820228001157602, 0.0 ], [ 12.349784006159851, 41.820284001157589, 0.0 ], [ 12.350045006159773, 41.820439001157553, 0.0 ] ] } },
{ "type": "Feature", "properties": { "Name": null, "descriptio": "descrizione: descrizione: descrizione: <br>Layer: 0<br>EntityHandle: 21A47<br>Layer: 0<br>EntityHandle: 21A47<br>Layer: 0<br>EntityHandle: 21A47", "timestamp": null, "begin": null, "end": null, "altitudeMo": null, "tessellate": 1, "extrude": 0, "visibility": -1, "drawOrder": null, "icon": null, "descrizion": "descrizione: descrizione: \nLayer: 0\nEntityHandle: 21A47\nLayer: 0\nEntityHandle: 21A47", "Layer": "0", "EntityHand": "21A47", "length_m": 33.968541396532402, "covered_length": 0.0, "coverage_pct": 0.0 }, "geometry": { "type": "LineString", "coordinates": [ [ 12.349870006159787, 41.819925001157607, 0.0 ], [ 12.350175006159676, 41.819918001157596, 0.0 ] ] } },
{ "type": "Feature", "properties": { "Name": null, "descriptio": "descrizione: descrizione: descrizione: <br>Layer: 0<br>EntityHandle: 21A4E<br>Layer: 0<br>EntityHandle: 21A4E<br>Layer: 0<br>EntityHandle: 21A4E", "timestamp": null, "begin": null, "end": null, "altitudeMo": null, "tessellate": 1, "extrude": 0, "visibility": -1, "drawOrder": null, "icon": null, "descrizion": "descrizione: descrizione: \nLayer: 0\nEntityHandle: 21A4E\nLayer: 0\nEntityHandle: 21A4E", "Layer": "0", "EntityHand": "21A4E", "length_m": 3820.3247536912527, "covered_length": 0.0, "coverage_pct": 0.0 }, "geometry": { "type": "LineString", "coordinates": [ [ 12.354600006158032, 41.819262001157441, 0.0 ], [ 12.354758006157967, 41.81920600115744, 0.0 ], [ 12.355377006157713, 41.818876001157435, 0.0 ], [ 12.355686006157578, 41.818689001157409, 0.0 ], [ 12.355902006157491, 41.818592001157441, 0.0 ], [ 12.356240006157359, 41.818472001157417, 0.0 ], [ 12.356332006157318, 41.818440001157413, 0.0 ], [ 12.356695006157183, 41.818308001157398, 0.0 ], [ 12.356947006157075, 41.8181860011574, 0.0 ], [ 12.357248006156953, 41.818040001157421, 0.0 ], [ 12.357529006156835, 41.817879001157415, 0.0 ], [ 12.357767006156733, 41.817711001157413, 0.0 ], [ 12.357943006156658, 41.817566001157438, 0.0 ], [ 12.358031006156613, 41.817486001157405, 0.0 ], [ 12.358121006156574, 41.817414001157424, 0.0 ], [ 12.358184006156549, 41.817366001157431, 0.0 ], [ 12.358248006156519, 41.817326001157419, 0.0 ], [ 12.358302006156501, 41.817296001157423, 0.0 ], [ 12.35835700615648, 41.817268001157395, 0.0 ], [ 12.358419006156455, 41.817240001157415, 0.0 ], [ 12.358485006156428, 41.817216001157405, 0.0 ], [ 12.358542006156402, 41.81719900115742, 0.0 ], [ 12.358596006156386, 41.817184001157422, 0.0 ], [ 12.358650006156363, 41.817172001157417, 0.0 ], [ 12.358710006156338, 41.817164001157408, 0.0 ], [ 12.358766006156317, 41.817162001157413, 0.0 ], [ 12.358823006156301, 41.817163001157397, 0.0 ], [ 12.358882006156273, 41.817168001157405, 0.0 ], [ 12.358940006156256, 41.817177001157376, 0.0 ], [ 12.358996006156245, 41.817192001157395, 0.0 ], [ 12.359052006156226, 41.817210001157392, 0.0 ], [ 12.359106006156207, 41.817229001157393, 0.0 ], [ 12.359159006156188, 41.817252001157392, 0.0 ], [ 12.359383006156117, 41.817349001157361, 0.0 ], [ 12.359420006156114, 41.817363001157375, 0.0 ], [ 12.359465006156096, 41.817373001157357, 0.0 ], [ 12.359510006156079, 41.817378001157351, 0.0 ], [ 12.359557006156065, 41.817381001157337, 0.0 ], [ 12.359813006155965, 41.817380001157353, 0.0 ], [ 12.360046006155885, 41.817366001157346, 0.0 ], [ 12.360230006155815, 41.817363001157311, 0.0 ], [ 12.360512006155721, 41.817392001157295, 0.0 ], [ 12.360734006155646, 41.817451001157302, 0.0 ], [ 12.361191006155495, 41.817590001157285, 0.0 ], [ 12.361549006155379, 41.817710001157224, 0.0 ], [ 12.361751006155323, 41.817794001157232, 0.0 ], [ 12.363003006154935, 41.818333001157121, 0.0 ], [ 12.363176006154879, 41.818408001157096, 0.0 ], [ 12.363879006154665, 41.818692001157039, 0.0 ], [ 12.364593006154429, 41.818957001156974, 0.0 ], [ 12.365458006154155, 41.819249001156919, 0.0 ], [ 12.365793006154044, 41.819362001156897, 0.0 ], [ 12.366016006153979, 41.819435001156862, 0.0 ], [ 12.366204006153914, 41.81949600115685, 0.0 ], [ 12.366575006153788, 41.819588001156852, 0.0 ], [ 12.366840006153703, 41.81964100115681, 0.0 ], [ 12.36729800615355, 41.819724001156793, 0.0 ], [ 12.36768100615342, 41.819816001156774, 0.0 ], [ 12.369886006152718, 41.820578001156626, 0.0 ], [ 12.371443006152214, 41.821106001156501, 0.0 ], [ 12.372837006151769, 41.821584001156367, 0.0 ], [ 12.373541006151539, 41.821777001156335, 0.0 ], [ 12.374277006151294, 41.821922001156288, 0.0 ], [ 12.375478006150882, 41.822114001156223, 0.0 ], [ 12.376972006150375, 41.822371001156121, 0.0 ], [ 12.377681006150134, 41.822484001156091, 0.0 ], [ 12.377822006150089, 41.822497001156066, 0.0 ], [ 12.380114006149286, 41.822688001155946, 0.0 ], [ 12.380754006149063, 41.822754001155914, 0.0 ], [ 12.38079700614905, 41.822758001155918, 0.0 ], [ 12.381099006148947, 41.822795001155882, 0.0 ], [ 12.381406006148843, 41.822843001155903, 0.0 ], [ 12.381905006148681, 41.822997001155827, 0.0 ], [ 12.382344006148537, 41.823153001155802, 0.0 ], [ 12.382579006148463, 41.823200001155783, 0.0 ], [ 12.382814006148379, 41.823223001155782, 0.0 ], [ 12.383364006148186, 41.823233001155756, 0.0 ], [ 12.384034006147941, 41.823233001155728, 0.0 ], [ 12.384752006147686, 41.823253001155706, 0.0 ], [ 12.385402006147455, 41.823252001155652, 0.0 ], [ 12.38587200614729, 41.823259001155641, 0.0 ], [ 12.386059006147217, 41.823265001155633, 0.0 ], [ 12.386389006147107, 41.823273001155613, 0.0 ] ] } },
{ "type": "Feature", "properties": { "Name": null, "descriptio": "descrizione: descrizione: descrizione: <br>Layer: 0<br>EntityHandle: 21A64<br>Layer: 0<br>EntityHandle: 21A64<br>Layer: 0<br>EntityHandle: 21A64", "timestamp": null, "begin": null, "end": null, "altitudeMo": null, "tessellate": 1, "extrude": 0, "visibility": -1, "drawOrder": null, "icon": null, "descrizion": "descrizione: descrizione: \nLayer: 0\nEntityHandle: 21A64\nLayer: 0\nEntityHandle: 21A64", "Layer": "0", "EntityHand": "21A64", "length_m": 315.92668912917384, "covered_length": 0.0, "coverage_pct": 0.0 }, "geometry": { "type": "LineString", "coordinates": [ [ 12.347733006160473, 41.819281001157755, 0.0 ], [ 12.348112006160335, 41.819185001157734, 0.0 ], [ 12.348148006160315, 41.819173001157736, 0.0 ], [ 12.34817800616031, 41.819159001157757, 0.0 ], [ 12.348209006160294, 41.819140001157734, 0.0 ], [ 12.348252006160269, 41.819106001157756, 0.0 ], [ 12.348392006160228, 41.819203001157732, 0.0 ], [ 12.348707006160138, 41.819428001157704, 0.0 ], [ 12.349154006160004, 41.81965300115764, 0.0 ], [ 12.349357006159943, 41.819739001157629, 0.0 ], [ 12.349560006159876, 41.819813001157634, 0.0 ], [ 12.349684006159841, 41.819851001157637, 0.0 ], [ 12.349815006159798, 41.81987600115761, 0.0 ], [ 12.350175006159676, 41.819918001157596, 0.0 ] ] } },
{ "type": "Feature", "properties": { "Name": null, "descriptio": "descrizione: descrizione: descrizione: <br>Layer: 0<br>EntityHandle: 21A91<br>Layer: 0<br>EntityHandle: 21A91<br>Layer: 0<br>EntityHandle: 21A91", "timestamp": null, "begin": null, "end": null, "altitudeMo": null, "tessellate": 1, "extrude": 0, "visibility": -1, "drawOrder": null, "icon": null, "descrizion": "descrizione: descrizione: \nLayer: 0\nEntityHandle: 21A91\nLayer: 0\nEntityHandle: 21A91", "Layer": "0", "EntityHand": "21A91", "length_m": 199.99053452718417, "covered_length": 0.0, "coverage_pct": 0.0 }, "geometry": { "type": "LineString", "coordinates": [ [ 12.331216006173442, 41.885038001153212, 0.0 ], [ 12.33118900617346, 41.88514600115321, 0.0 ], [ 12.331181006173475, 41.885210001153204, 0.0 ], [ 12.331200006173466, 41.885284001153188, 0.0 ], [ 12.331257006173463, 41.885346001153181, 0.0 ], [ 12.331326006173439, 41.885394001153188, 0.0 ], [ 12.331408006173415, 41.88542100115319, 0.0 ], [ 12.331476006173393, 41.88543300115316, 0.0 ], [ 12.331598006173353, 41.885423001153185, 0.0 ], [ 12.332418006173045, 41.885279001153144, 0.0 ], [ 12.332559006172991, 41.885286001153133, 0.0 ] ] } },
{ "type": "Feature", "properties": { "Name": null, "descriptio": "descrizione: descrizione: descrizione: <br>Layer: 0<br>EntityHandle: 21B06<br>Layer: 0<br>EntityHandle: 21B06<br>Layer: 0<br>EntityHandle: 21B06", "timestamp": null, "begin": null, "end": null, "altitudeMo": null, "tessellate": 1, "extrude": 0, "visibility": -1, "drawOrder": null, "icon": null, "descrizion": "descrizione: descrizione: \nLayer: 0\nEntityHandle: 21B06\nLayer: 0\nEntityHandle: 21B06", "Layer": "0", "EntityHand": "21B06", "length_m": 470.27352357038887, "covered_length": 0.0, "coverage_pct": 0.0 }, "geometry": { "type": "LineString", "coordinates": [ [ 12.33331800617257, 41.883862001153219, 0.0 ], [ 12.333256006172588, 41.883892001153193, 0.0 ], [ 12.332950006172714, 41.884042001153198, 0.0 ], [ 12.332478006172911, 41.884274001153209, 0.0 ], [ 12.331934006173134, 41.884514001153228, 0.0 ], [ 12.331892006173147, 41.884532001153218, 0.0 ], [ 12.33166600617324, 41.884675001153227, 0.0 ], [ 12.331374006173373, 41.884894001153221, 0.0 ], [ 12.331216006173442, 41.885038001153212, 0.0 ], [ 12.331124006173482, 41.885128001153213, 0.0 ], [ 12.331033006173525, 41.885242001153216, 0.0 ], [ 12.330900006173586, 41.885370001153198, 0.0 ], [ 12.330809006173629, 41.885449001153198, 0.0 ], [ 12.330694006173674, 41.885512001153195, 0.0 ], [ 12.33054900617373, 41.885553001153212, 0.0 ], [ 12.330301006173821, 41.885577001153202, 0.0 ], [ 12.330124006173888, 41.885602001153238, 0.0 ], [ 12.329972006173941, 41.88564300115322, 0.0 ] ] } },
{ "type": "Feature", "properties": { "Name": null, "descriptio": "descrizione: descrizione: descrizione: <br>Layer: 0<br>EntityHandle: 21FA1<br>Layer: 0<br>EntityHandle: 21FA1<br>Layer: 0<br>EntityHandle: 21FA1", "timestamp": null, "begin": null, "end": null, "altitudeMo": null, "tessellate": 1, "extrude": 0, "visibility": -1, "drawOrder": null, "icon": null, "descrizion": "descrizione: descrizione: \nLayer: 0\nEntityHandle: 21FA1\nLayer: 0\nEntityHandle: 21FA1", "Layer": "0", "EntityHand": "21FA1", "length_m": 179.44132362218795, "covered_length": 0.0, "coverage_pct": 0.0 }, "geometry": { "type": "LineString", "coordinates": [ [ 12.486064006124842, 41.951175001140534, 0.0 ], [ 12.486265006124741, 41.950997001140543, 0.0 ], [ 12.486205006124763, 41.951000001140542, 0.0 ], [ 12.486133006124795, 41.950986001140535, 0.0 ], [ 12.486079006124811, 41.950960001140551, 0.0 ], [ 12.48603400612482, 41.950919001140555, 0.0 ], [ 12.48601500612482, 41.950870001140579, 0.0 ], [ 12.486010006124824, 41.950824001140582, 0.0 ], [ 12.486022006124813, 41.950781001140555, 0.0 ], [ 12.4860560061248, 41.950741001140578, 0.0 ], [ 12.486106006124775, 41.950712001140587, 0.0 ], [ 12.486163006124748, 41.950694001140583, 0.0 ], [ 12.486246006124723, 41.950690001140586, 0.0 ], [ 12.486329006124693, 41.950716001140549, 0.0 ], [ 12.486387006124673, 41.950759001140554, 0.0 ], [ 12.486415006124671, 41.950808001140551, 0.0 ], [ 12.486421006124672, 41.950851001140542, 0.0 ], [ 12.486410006124675, 41.950890001140529, 0.0 ], [ 12.486381006124699, 41.950936001140533, 0.0 ], [ 12.486329006124723, 41.950974001140544, 0.0 ], [ 12.486265006124741, 41.950997001140543, 0.0 ] ] } }
]
}
